STARLINK-33616          
1 63385U 25063Y   26200.32803096  .00010613  00000+0  32478-3 0  9999
2 63385  53.1586 170.9792 0001241  75.4433 284.6707 15.34401173 74727
STARLINK-33571          
1 63386U 25063Z   26200.34848907  .00004825  00000+0  15387-3 0  9990
2 63386  53.1574 168.9531 0001328  88.1881 271.9274 15.34394151 74755
STARLINK-33533          
1 63387U 25063AA  26200.16142830  .00015257  00000+0  46179-3 0  9997
2 63387  53.1588 157.8660 0001231  91.9879 268.1265 15.34398003 74896
STARLINK-33629          
1 63388U 25063AB  26200.15511271  .00012334  00000+0  37548-3 0  9999
2 63388  53.1602 157.8256 0001544  90.6725 269.4454 15.34407442 74946
STARLINK-33656          
1 63389U 25063AC  26200.31217961  .00007208  00000+0  24375-3 0  9995
2 63389  53.1582 160.2247 0001276  92.5029 267.6119 15.31709732 74922
STARLINK-33531          
1 63399U 25065A   26200.72299097  .00007006  00000+0  26375-3 0  9991
2 63399  43.0031  81.3518 0001385 274.3495  85.7199 15.27597430 73035
STARLINK-33652          
1 63400U 25065B   26200.69730241  .00010021  00000+0  37308-3 0  9990
2 63400  42.9995  81.1529 0000975 264.4635  95.6106 15.27588752 73030
STARLINK-33707          
1 63401U 25065C   26200.71914524  .00009905  00000+0  36890-3 0  9996
2 63401  43.0021  81.3239 0000440 324.1292  35.9530 15.27588219 73039
STARLINK-33668          
1 63402U 25065D   26200.73714656  .00003238  00000+0  12722-3 0  9994
2 63402  43.0019  81.4559 0001513 273.2434  86.8245 15.27563178 73032
STARLINK-33676          
1 63403U 25065E   26200.71785817  .00010946  00000+0  40653-3 0  9998
2 63403  43.0005  81.3093 0000790 271.4366  88.6395 15.27592428 73036
STARLINK-33711          
1 63404U 25065F   26200.69601318  .00006892  00000+0  25962-3 0  9990
2 63404  42.9964  81.1442 0000351 253.4239 106.6574 15.27592933 73038
STARLINK-33708          
1 63405U 25065G   26200.72171190  .00007613  00000+0  28579-3 0  9994
2 63405  43.0021  81.3339 0000928 250.1342 109.9410 15.27590022 73033
STARLINK-33690          
1 63406U 25065H   26200.74232220  .00658088  00000+0  15602-1 0  9998
2 63406  43.0018  77.1735 0003087 242.2945 117.7597 15.38756474 73088
STARLINK-33694          
1 63407U 25065J   26200.71399853  .00008630  00000+0  32263-3 0  9998
2 63407  43.0010  81.2732 0001169 270.3274  89.7444 15.27594713 73038
STARLINK-33692          
1 63408U 25065K   26200.69182139  .00010082  00000+0  37530-3 0  9999
2 63408  42.9982  85.4230 0000331 263.2288  96.8526 15.27586000 72983
STARLINK-33693          
1 63409U 25065L   26200.73198713  .00008415  00000+0  31484-3 0  9999
2 63409  42.9996  81.4048 0001571 261.6815  98.3859 15.27592581 73031
STARLINK-33677          
1 63410U 25065M   26200.72427536  .00011210  00000+0  41631-3 0  9990
2 63410  43.0026  81.3488 0001267 252.7679 107.3034 15.27575400 73034
STARLINK-33647          
1 63411U 25065N   26200.70675698  .00008098  00000+0  30343-3 0  9991
2 63411  42.9982  89.0039 0000824 273.8993  86.1764 15.27584511 72948
STARLINK-33645          
1 63412U 25065P   26200.71607683  .00010294  00000+0  38290-3 0  9992
2 63412  42.9976  84.6824 0000244 334.0385  26.0454 15.27593719 72990
STARLINK-33670          
1 63413U 25065Q   26200.72042292  .00010041  00000+0  37383-3 0  9995
2 63413  43.0002  81.2858 0000838 272.8821  87.1934 15.27587654 73034
STARLINK-33644          
1 63414U 25065R   26200.70129403  .00007118  00000+0  26786-3 0  9990
2 63414  42.9994  81.9914 0000889 277.6021  82.4730 15.27590323 73022
STARLINK-33664          
1 63415U 25065S   26200.40119795  .00007520  00000+0  28229-3 0  9992
2 63415  43.0028  83.1840 0000917 272.4802  87.5944 15.27605038 72984
STARLINK-33649          
1 63416U 25065T   26200.71527685  .00017427  00000+0  64123-3 0  9998
2 63416  42.9995  81.2262 0000946 238.2923 121.7837 15.27584620 73031
STARLINK-33535          
1 63417U 25065U   26200.72685458  .00015116  00000+0  55757-3 0  9999
2 63417  43.0026  81.3033 0001238 257.1195 102.9519 15.27588832 73039
STARLINK-33703          
1 63418U 25065V   26200.09353991  .00004359  00000+0  16782-3 0  9996
2 63418  43.0001  85.1645 0001380 272.9058  87.1635 15.27583048 72930
STARLINK-33709          
1 63419U 25065W   26200.68587147  .00006005  00000+0  22755-3 0  9991
2 63419  42.9985  81.8702 0001196 269.4850  90.5864 15.27583680 73028
STARLINK-33698          
1 63420U 25065X   26200.05369685  .00006385  00000+0  24128-3 0  9996
2 63420  43.0023  84.8518 0001352 257.1485 102.9216 15.27589405 72934
STARLINK-33606          
1 63421U 25065Y   26200.72555575  .00007113  00000+0  26773-3 0  9994
2 63421  43.0005  81.2996 0001136 250.1454 109.9275 15.27585036 73035
STARLINK-33686          
1 63422U 25065Z   26200.01658216  .00011558  00000+0  42864-3 0  9990
2 63422  43.0037  85.4395 0002377 258.2314 101.8271 15.27597459 72928
STARLINK-33675          
1 63423U 25065AA  26200.37677991  .00006961  00000+0  26217-3 0  9997
2 63423  42.9996  82.9868 0001029 271.2368  88.8365 15.27589877 72984
