OBJECT_NAME,OBJECT_ID,EPOCH,MEAN_MOTION,ECCENTRICITY,INCLINATION,RA_OF_ASC_NODE,ARG_OF_PERICENTER,MEAN_ANOMALY,EPHEMERIS_TYPE,CLASSIFICATION_TYPE,NORAD_CAT_ID,ELEMENT_SET_NO,REV_AT_EPOCH,BSTAR,MEAN_MOTION_DOT,MEAN_MOTION_DDOT
STARLINK-33616,2025-063Y,2026-07-19T07:52:21.874944,15.34401173,.00012418,53.1586,170.9792,75.4433,284.6707,0,U,63385,999,7472,.32478487E-3,.10613E-3,0
STARLINK-33571,2025-063Z,2026-07-19T08:21:49.455648,15.34394151,.00013285,53.1574,168.9531,88.1881,271.9274,0,U,63386,999,7475,.1538703E-3,.4825E-4,0
STARLINK-33533,2025-063AA,2026-07-19T03:52:27.405120,15.34398003,.00012317,53.1588,157.8660,91.9879,268.1265,0,U,63387,999,7489,.4617867E-3,.15257E-3,0
STARLINK-33629,2025-063AB,2026-07-19T03:43:21.738144,15.34407442,.00015441,53.1602,157.8256,90.6725,269.4454,0,U,63388,999,7494,.37547911E-3,.12334E-3,0
STARLINK-33656,2025-063AC,2026-07-19T07:29:32.318304,15.31709732,.00012761,53.1582,160.2247,92.5029,267.6119,0,U,63389,999,7492,.24375276E-3,.7208E-4,0
STARLINK-33531,2025-065A,2026-07-19T17:21:06.419808,15.27597430,.0001385,43.0031,81.3518,274.3495,85.7199,0,U,63399,999,7303,.26375E-3,.7006E-4,0
STARLINK-33652,2025-065B,2026-07-19T16:44:06.928224,15.27588752,.0000975,42.9995,81.1529,264.4635,95.6106,0,U,63400,999,7303,.37308E-3,.10021E-3,0
STARLINK-33707,2025-065C,2026-07-19T17:15:34.148736,15.27588219,.000044,43.0021,81.3239,324.1292,35.9530,0,U,63401,999,7303,.3689E-3,.9905E-4,0
STARLINK-33668,2025-065D,2026-07-19T17:41:29.462784,15.27563178,.0001513,43.0019,81.4559,273.2434,86.8245,0,U,63402,999,7303,.12722E-3,.3238E-4,0
STARLINK-33676,2025-065E,2026-07-19T17:13:42.945888,15.27592428,.000079,43.0005,81.3093,271.4366,88.6395,0,U,63403,999,7303,.40653E-3,.10946E-3,0
STARLINK-33711,2025-065F,2026-07-19T16:42:15.538752,15.27592933,.0000351,42.9964,81.1442,253.4239,106.6574,0,U,63404,999,7303,.25962E-3,.6892E-4,0
STARLINK-33708,2025-065G,2026-07-19T17:19:15.908160,15.27590022,.0000928,43.0021,81.3339,250.1342,109.9410,0,U,63405,999,7303,.28579E-3,.7613E-4,0
STARLINK-33690,2025-065H,2026-07-19T17:48:56.638080,15.38756474,.0003087,43.0018,77.1735,242.2945,117.7597,0,U,63406,999,7308,.15602E-1,.658088E-2,0
STARLINK-33694,2025-065J,2026-07-19T17:08:09.472992,15.27594713,.0001169,43.0010,81.2732,270.3274,89.7444,0,U,63407,999,7303,.32263E-3,.863E-4,0
STARLINK-33692,2025-065K,2026-07-19T16:36:13.368096,15.27586000,.0000331,42.9982,85.4230,263.2288,96.8526,0,U,63408,999,7298,.3753E-3,.10082E-3,0
STARLINK-33693,2025-065L,2026-07-19T17:34:03.688032,15.27592581,.0001571,42.9996,81.4048,261.6815,98.3859,0,U,63409,999,7303,.31484E-3,.8415E-4,0
STARLINK-33677,2025-065M,2026-07-19T17:22:57.391104,15.27575400,.0001267,43.0026,81.3488,252.7679,107.3034,0,U,63410,999,7303,.41631E-3,.1121E-3,0
STARLINK-33647,2025-065N,2026-07-19T16:57:43.803072,15.27584511,.0000824,42.9982,89.0039,273.8993,86.1764,0,U,63411,999,7294,.30343E-3,.8098E-4,0
STARLINK-33645,2025-065P,2026-07-19T17:11:09.038112,15.27593719,.0000244,42.9976,84.6824,334.0385,26.0454,0,U,63412,999,7299,.3829E-3,.10294E-3,0
STARLINK-33670,2025-065Q,2026-07-19T17:17:24.540288,15.27587654,.0000838,43.0002,81.2858,272.8821,87.1934,0,U,63413,999,7303,.37383E-3,.10041E-3,0
STARLINK-33644,2025-065R,2026-07-19T16:49:51.804192,15.27590323,.0000889,42.9994,81.9914,277.6021,82.4730,0,U,63414,999,7302,.26786E-3,.7118E-4,0
STARLINK-33664,2025-065S,2026-07-19T09:37:43.502880,15.27605038,.0000917,43.0028,83.1840,272.4802,87.5944,0,U,63415,999,7298,.28229265E-3,.752E-4,0
STARLINK-33649,2025-065T,2026-07-19T17:09:59.919840,15.27584620,.0000946,42.9995,81.2262,238.2923,121.7837,0,U,63416,999,7303,.64123E-3,.17427E-3,0
STARLINK-33535,2025-065U,2026-07-19T17:26:40.235712,15.27588832,.0001238,43.0026,81.3033,257.1195,102.9519,0,U,63417,999,7303,.55757E-3,.15116E-3,0
STARLINK-33703,2025-065V,2026-07-19T02:14:41.848224,15.27583048,.00013803,43.0001,85.1645,272.9058,87.1635,0,U,63418,999,7293,.16782014E-3,.4359E-4,0
STARLINK-33709,2025-065W,2026-07-19T16:27:39.295008,15.27583680,.0001196,42.9985,81.8702,269.4850,90.5864,0,U,63419,999,7302,.22755E-3,.6005E-4,0
STARLINK-33698,2025-065X,2026-07-19T01:17:19.407840,15.27589405,.00013526,43.0023,84.8518,257.1485,102.9216,0,U,63420,999,7293,.2412791E-3,.6385E-4,0
STARLINK-33606,2025-065Y,2026-07-19T17:24:48.016800,15.27585036,.0001136,43.0005,81.2996,250.1454,109.9275,0,U,63421,999,7303,.26773E-3,.7113E-4,0
STARLINK-33686,2025-065Z,2026-07-19T00:23:52.698624,15.27597459,.00023779,43.0037,85.4395,258.2314,101.8271,0,U,63422,999,7292,.42863522E-3,.11558E-3,0
STARLINK-33675,2025-065AA,2026-07-19T09:02:33.784224,15.27589877,.00010293,42.9996,82.9868,271.2368,88.8365,0,U,63423,999,7298,.2621671E-3,.6961E-4,0
